name,address,city,state,zip_code,place_id,lat,lng,source_query
Islamic Cultural Center Riverside Drive,"1 Riverside Dr, New York, NY 10023, United States",New York,NY,10023,ChIJsxvZLmJYwokRAMsZaNGZzXU,40.7804642,-73.98538049999999,"mosques in Manhattan, NYC"
Masjid Malcolm Shabazz,"102 W 116th St, New York, NY 10026, United States",New York,NY,10026,ChIJw6noUxD2wokRnj5_OciSlA8,40.8020169,-73.95023929999999,"mosques in Manhattan, NYC"
Al-Aman Mosque,"203 Forbell St, Brooklyn, NY 11208, United States",Brooklyn,NY,11208,ChIJTekAOpVdwokRwp9q-SJz80k,40.6781623,-73.86380919999999,"mosques in Brooklyn, NYC"
Masjid Dar Al-Istiqamah (NYICCI),"1239 Belmont Ave, Brooklyn, NY 11208, United States",Brooklyn,NY,11208,ChIJrTB4UJRdwokR9J3j_a70R0s,40.6754245,-73.8617501,"mosques in Brooklyn, NYC"
Baitul Mamur Mosque and Community Center,"1033 Glenmore Ave, Brooklyn, NY 11208, United States",Brooklyn,NY,11208,ChIJ2Z4YLrldwokRw4rtSdN0F4U,40.67686399999999,-73.8718057,"mosques in Brooklyn, NYC"
AT Taqwa Inc,"1266 Bedford Ave, Brooklyn, NY 11216, United States",Brooklyn,NY,11216,ChIJywK230BbwokRol74mugarhc,40.6804573,-73.9535324,"mosques in Brooklyn, NYC"
Musjid Abu Hanifah Inc.,"2743 Pitkin Ave, Brooklyn, NY 11208, United States",Brooklyn,NY,11208,ChIJe2AFsb5dwokRktD2tXwmWoo,40.6756949,-73.8707761,"mosques in Brooklyn, NYC"
Brooklyn Islamic Center,"722 Church Ave, Brooklyn, NY 11218, United States",Brooklyn,NY,11218,ChIJ2w5pIDtbwokRxl2FvsYXWTQ,40.6455145,-73.9724401,"mosques in Brooklyn, NYC"
New Lots Islamic Center,"604 Jerome St, Brooklyn, NY 11207, United States",Brooklyn,NY,11207,ChIJ5yyjl6tdwokRJMovfeF79Bo,40.66600649999999,-73.8849771,"mosques in Brooklyn, NYC"
Makki Masjid Muslim Community Center,"1089 Coney Island Ave, Brooklyn, NY 11230, United States",Brooklyn,NY,11230,ChIJM13fesxEwokRrI8E-quqsk0,40.6310149,-73.96619770000001,"mosques in Brooklyn, NYC"
Al-Furqan Jame Masjid Inc.,"76-18 Glenmore Ave, Ozone Park, NY 11417, United States",Ozone Park,NY,11417,ChIJKWXRsZRdwokR2ij8hS6tJ-g,40.6778805,-73.8602545,"mosques in Brooklyn, NYC"
Masjid An Namirah,"2135 Pitkin Ave, Brooklyn, NY 11207, United States",Brooklyn,NY,11207,ChIJx6zG9gVdwokREBs-27ONui8,40.6723556,-73.8936354,"mosques in Brooklyn, NYC"
MCC: Muslim Community Center (Brooklyn),"5320 3rd Ave, Brooklyn, NY 11220, United States",Brooklyn,NY,11220,ChIJ-4r4Lq1awokR8tvS-2P7vPo,40.6457245,-74.0170673,"mosques in Brooklyn, NYC"
Baitun Noor Masjid,"88-19 Liberty Ave, Jamaica, NY 11417, United States",Jamaica,NY,11417,ChIJf1t0uvNdwokRlaLWQTnJtXY,40.6802121,-73.8499659,"mosques in Brooklyn, NYC"
Al-Farooq Mosque,"554 Atlantic Ave, Brooklyn, NY 11217, United States",Brooklyn,NY,11217,ChIJ1Wfbmq1bwokRUvKq1ayw3VY,40.6846907,-73.9794847,"mosques in Brooklyn, NYC"
Ozone Park Jame Masjid,"91-03 101st Ave, Ozone Park, NY 11416, United States",Ozone Park,NY,11416,ChIJxcwphfFdwokRIz6ZBJr6-00,40.6834969,-73.8492352,"mosques in Brooklyn, NYC"
Greenpoint Islamic Center,"602 Leonard St, Brooklyn, NY 11222, United States",Brooklyn,NY,11222,ChIJnYka00VZwokRDlFrcoM5kbo,40.7253909,-73.9503691,"mosques in Brooklyn, NYC"
Baitush Sharf Jame Masjid & Islamic Center,"769 Bergen St, Brooklyn, NY 11238, United States",Brooklyn,NY,11238,ChIJJQPQ06NbwokRA_u6OBeGoGM,40.6784161,-73.9627414,"mosques in Brooklyn, NYC"
Masjid and Islamic Center of Ridgewood,"10-19 Wyckoff Ave, Flushing, NY 11385, United States",Flushing,NY,11385,ChIJ6bEWDJJdwokRQKKRHllgbcM,40.6957359,-73.903869,"mosques in Brooklyn, NYC"
Albanian American Islamic Center,"72-24 Myrtle Ave, Glendale, NY 11385, United States",Glendale,NY,11385,ChIJg_3xIHhewokRa0Bfp2CePVU,40.7021272,-73.8773491,"mosques in Brooklyn, NYC"
Islamic Research And Dawah Center,"406 Autumn Ave, Brooklyn, NY 11208, United States",Brooklyn,NY,11208,ChIJR7genMBdwokR6NoNYNTPXys,40.6798602,-73.8694526,"mosques in Brooklyn, NYC"
Al Mustafa Islamic Center Masjid,"735 Ocean View Ave, Brooklyn, NY 11235, United States",Brooklyn,NY,11235,ChIJ5z4qE0JEwokRsbA5Sknefpw,40.5801153,-73.9602397,"mosques in Brooklyn, NYC"
Islamic Society of Flatbush (Masjid Dar al Arqam),"3318 Church Ave, Brooklyn, NY 11203, United States",Brooklyn,NY,11203,ChIJH3nj22hbwokR8wuuIiDuplc,40.6508826,-73.94599149999999,"mosques in Brooklyn, NYC"
Canarsie Islamic Services Inc,"959 E 85th St, Brooklyn, NY 11236, United States",Brooklyn,NY,11236,ChIJBTgdQMZcwokRzDf_TxFma1A,40.6369123,-73.9081479,"mosques in Brooklyn, NYC"
Islamic Society of Bay Ridge,"6807 5th Ave a1, Brooklyn, NY 11220, United States",Brooklyn,NY,11220,ChIJjUxQV1BFwokRSgueFLDVZF8,40.6338102,-74.0207064,"mosques in Brooklyn, NYC"
Masjid Al-Rahman,"333 86th St, Brooklyn, NY 11209, United States",Brooklyn,NY,11209,ChIJFW2Q_19FwokR-Icc1JmzbBM,40.6233705,-74.0299766,"mosques in Brooklyn, NYC"
Fultoli Jame masjid & islamic institute ozone park inc.,"84-05 101st Ave, Ozone Park, NY 11416, United States",Ozone Park,NY,11416,ChIJZ8cf6O1dwokR_eYCUT2vzKg,40.6818081,-73.8551351,"mosques in Brooklyn, NYC"
Ibrahim Masjid & Communty Center,"95-04 103rd Ave, Jamaica, NY 11417, United States",Jamaica,NY,11417,ChIJz7euWm9dwokRKiJ5QIh3CPQ,40.6823841,-73.8442401,"mosques in Brooklyn, NYC"
Masjid Al-Ihsaan,"977 Fulton St, Brooklyn, NY 11238, United States",Brooklyn,NY,11238,ChIJQ9eSSqNbwokR2aE9YV3_DNk,40.6830173,-73.9640587,"mosques in Brooklyn, NYC"
Nur Al-Islam Mosque,"21 Church Ave, Brooklyn, NY 11218, United States",Brooklyn,NY,11218,ChIJEYNb-ilbwokREvsHRjeT3zw,40.6417829,-73.9824429,"mosques in Brooklyn, NYC"
Muhammad Mosque,"202 Pennsylvania Ave # A, Brooklyn, NY 11207, United States",Brooklyn,NY,11207,ChIJketTwlFcwokRSLn9AkbHy9s,40.67283219999999,-73.8963133,"mosques in Brooklyn, NYC"
American Turkish Eyup Sultan Cultural Center,"2814 Brighton 3rd St, Brooklyn, NY 11235, United States",Brooklyn,NY,11235,ChIJK9minUREwokRfUKMnuYYHb8,40.5826347,-73.9656392,"mosques in Brooklyn, NYC"
Broadway Masjid & Islamic Center,"345 Broadway, Brooklyn, NY 11211, United States",Brooklyn,NY,11211,ChIJdY_sIuFbwokRMTEA7YE3qko,40.7078764,-73.9559759,"mosques in Brooklyn, NYC"
Masjid Imam Abu Hanifa,"423 Ocean Pkwy Ground floor, Brooklyn, NY 11218, United States",Brooklyn,NY,11218,ChIJaSLfIk5bwokR7JlqceRFgRo,40.6382736,-73.9725115,"mosques in Brooklyn, NYC"
Al-Huda Mosque,"64 E 98th St, Brooklyn, NY 11212, United States",Brooklyn,NY,11212,ChIJW1DbY4hcwokR2g06dF5f1sY,40.6650514,-73.9231811,"mosques in Brooklyn, NYC"
Masjid Baitul Hamd,"50 New York Ave, Brooklyn, NY 11216, United States",Brooklyn,NY,11216,ChIJY6sQjDlbwokRWaum7Co63tQ,40.67859869999999,-73.94706029999999,"mosques in Brooklyn, NYC"
Al Madina Mosque islamic Center of Brooklyn,"1781 East 16th Street, Brooklyn, NY 11229, United States",Brooklyn,NY,11229,ChIJd2k6CpNEwokRw1i9-cgMEIM,40.606413,-73.95672689999999,"mosques in Brooklyn, NYC"
Al-Abedin Masjid,"251 Nostrand Ave, Brooklyn, NY 11205, United States",Brooklyn,NY,11205,ChIJL-DnPJNbwokRw_4Zxy02TP8,40.6902825,-73.9514145,"mosques in Brooklyn, NYC"
Al-Tawheed Mosque,"1013 Church Ave, Brooklyn, NY 11218, United States",Brooklyn,NY,11218,ChIJi0mQ3zpbwokRMrwlxuJ13Oo,40.6468887,-73.9699072,"mosques in Brooklyn, NYC"
Islamic Mission of America/Dawood Mosque,"143 State St, Brooklyn, NY 11201, United States",Brooklyn,NY,11201,ChIJGU0ca09awokRaQ0J81PfaCM,40.6908505,-73.9934562,"mosques in Brooklyn, NYC"
Beit El-Maqdis Islamic Center,"6206 6th Ave, Brooklyn, NY 11220, United States",Brooklyn,NY,11220,ChIJ9Wnt0U1FwokR5gvn8mpv3G4,40.6366464,-74.01573429999999,"mosques in Brooklyn, NYC"
Al-Imam Al-Albani Mosque,"463 3rd Ave, Brooklyn, NY 11215, United States",Brooklyn,NY,11215,ChIJif3tyPtawokR_maQkAt7Us0,40.6711155,-73.9911202,"mosques in Brooklyn, NYC"
Masjid Al-Marjaan,"4703 Avenue D, Brooklyn, NY 11203, United States",Brooklyn,NY,11203,ChIJw2KfFYddwokRnYQnEK3ZEAs,40.6421001,-73.93205019999999,"mosques in Brooklyn, NYC"
Al-Ihsaan Mosque,"65 Utica Ave, Brooklyn, NY 11213, United States",Brooklyn,NY,11213,ChIJx7EIinlcwokRLgMgyHTwBqA,40.6768751,-73.9302209,"mosques in Brooklyn, NYC"
Masjid Tawhid,"928 DeKalb Ave, Brooklyn, NY 11221, United States",Brooklyn,NY,11221,ChIJp4USJa9bwokRLVQLXOE64jY,40.6927537,-73.9385428,"mosques in Brooklyn, NYC"
Umar Mosque,"232 Neptune Ave, Brooklyn, NY 11235, United States",Brooklyn,NY,11235,ChIJmWYmWEJEwokRrD7gL8kI_Qc,40.5812969,-73.9617461,"mosques in Brooklyn, NYC"
Masjid Baitus Salam,"167 E 43rd St, Brooklyn, NY 11203, United States",Brooklyn,NY,11203,ChIJqf1_f45bwokRWdrAjJ7lmf4,40.6518843,-73.93703909999999,"mosques in Brooklyn, NYC"
Sheepshead Bay Muslim Center,"2812 Voorhies Ave, Brooklyn, NY 11235, United States",Brooklyn,NY,11235,ChIJmYLIvX5EwokR5pYfRJzPfuA,40.5870187,-73.9408435,"mosques in Brooklyn, NYC"
Abu Bakr El Seddique Mosque,"115 Foster Ave, Brooklyn, NY 11230, United States",Brooklyn,NY,11230,ChIJbwJkJ9FEwokRfSuuIlaoSaY,40.6279779,-73.9760632,"mosques in Brooklyn, NYC"
Ditmas Park Masjid,"2332 Newkirk Ave, Brooklyn, NY 11226, United States",Brooklyn,NY,11226,ChIJ_-OzBOxbwokRolxNR9KDSa4,40.6393986,-73.9550739,"mosques in Brooklyn, NYC"
Masjid Al-Badr,"2431 Bath Ave, Brooklyn, NY 11214, United States",Brooklyn,NY,11214,ChIJA8XElKdFwokR9pJxmO3fAkE,40.5951416,-73.9920116,"mosques in Brooklyn, NYC"
Masjid Ahlul Qur'aan Wa Sunnah,"135-11 125th St, South Ozone Park, NY 11420, United States",South Ozone Park,NY,11420,ChIJo1f3TxRnwokR5tQ9gaf05fo,40.6689139,-73.8143,"mosques in Brooklyn, NYC"
Masjid Al Jama,"94-17 102nd St, Ozone Park, NY 11416, United States",Ozone Park,NY,11416,ChIJD1twnfhdwokRB39ZdCYCg5A,40.6887947,-73.841934,"mosques in Brooklyn, NYC"
Ibaadu’rrahman Central Mosque,"380 Myrtle Ave, Brooklyn, NY 11205, United States",Brooklyn,NY,11205,ChIJ74ccH7hbwokRhoJ_GRw297E,40.6929889,-73.97101789999999,"mosques in Brooklyn, NYC"
Masjid Aisha Mill Basin Islamic Center,"in basement, 5804 Avenue N, Brooklyn, NY 11234, United States",Brooklyn,NY,11234,ChIJlb9exHFDwokR_h91Nq7hDY4,40.6192324,-73.9189919,"mosques in Brooklyn, NYC"
Quba Mosque,"1323 Foster Ave, Brooklyn, NY 11230, United States",Brooklyn,NY,11230,ChIJY6W4tDRbwokR8vhlNTz7hXY,40.6337167,-73.9641448,"mosques in Brooklyn, NYC"
Ozone Park Islamic Center,"104-23 103rd St, Ozone Park, NY 11417, United States",Ozone Park,NY,11417,ChIJa6ghyNpnwokRO4kQA1PQAmY,40.6811006,-73.8372687,"mosques in Brooklyn, NYC"
Faizan-E-Madinah (Brooklyn),"715 Coney Island Ave, Brooklyn, NY 11218, United States",Brooklyn,NY,11218,ChIJmzl2nDFbwokRqZTi271NbFQ,40.640158,-73.968673,"mosques in Brooklyn, NYC"
Masjid Baitul Gaffar,"86-81 102nd St, Richmond Hill, NY 11418, United States",Richmond Hill,NY,11418,ChIJN4Z63TpdwokRBVK7WHX6qDs,40.694727,-73.8450453,"mosques in Brooklyn, NYC"
Al Marwa Islamic Center,"2015 64th St, Brooklyn, NY 11204, United States",Brooklyn,NY,11204,ChIJS61yICBFwokRn_8vuK-ZOT4,40.6169317,-73.9847527,"mosques in Brooklyn, NYC"
Diyanet Mosque of Brooklyn Eyup Sultan,"2812 Brighton 3rd St, Brooklyn, NY 11235, United States",Brooklyn,NY,11235,ChIJfQwaYfJFwokRXukJPy6JVU8,40.5826675,-73.9656385,"mosques in Brooklyn, NYC"
Baitul Jannah Zame Masjid and Muslim Community Center,"569 McDonald Ave, Brooklyn, NY 11218, United States",Brooklyn,NY,11218,ChIJ-ckh3StbwokRykGUGsOG_Ew,40.6402434,-73.9786919,"mosques in Brooklyn, NYC"
Al-Furqan Jame Masjid Inc.,"76-18 Glenmore Ave, Ozone Park, NY 11417, United States",Ozone Park,NY,11417,ChIJKWXRsZRdwokR2ij8hS6tJ-g,40.6778805,-73.8602545,"mosques in Queens, NYC"
Masjid Ahlul Qur'aan Wa Sunnah,"135-11 125th St, South Ozone Park, NY 11420, United States",South Ozone Park,NY,11420,ChIJo1f3TxRnwokR5tQ9gaf05fo,40.6689139,-73.8143,"mosques in Queens, NYC"
MUNA Center of New York,"80-50 Pitkin Ave, Ozone Park, NY 11417, United States",Ozone Park,NY,11417,ChIJjZc7QHVdwokRJL4wIzGo0u0,40.6759255,-73.855684,"mosques in Queens, NYC"
Masjid Al Jama,"94-17 102nd St, Ozone Park, NY 11416, United States",Ozone Park,NY,11416,ChIJD1twnfhdwokRB39ZdCYCg5A,40.6887947,-73.841934,"mosques in Queens, NYC"
Jamaica Muslim Center,"85-37 JMC Way, Jamaica, NY 11432, United States",Jamaica,NY,11432,ChIJjxcp7-FgwokR0Anky0BRMJg,40.7126175,-73.7958441,"mosques in Queens, NYC"
Ozone Park Jame Masjid,"91-03 101st Ave, Ozone Park, NY 11416, United States",Ozone Park,NY,11416,ChIJxcwphfFdwokRIz6ZBJr6-00,40.6834969,-73.8492352,"mosques in Queens, NYC"
Ibrahim Masjid & Communty Center,"95-04 103rd Ave, Jamaica, NY 11417, United States",Jamaica,NY,11417,ChIJz7euWm9dwokRKiJ5QIh3CPQ,40.6823841,-73.8442401,"mosques in Queens, NYC"
Al-Aman Mosque,"203 Forbell St, Brooklyn, NY 11208, United States",Brooklyn,NY,11208,ChIJTekAOpVdwokRwp9q-SJz80k,40.6781623,-73.86380919999999,"mosques in Queens, NYC"
Baitun Noor Masjid,"88-19 Liberty Ave, Jamaica, NY 11417, United States",Jamaica,NY,11417,ChIJf1t0uvNdwokRlaLWQTnJtXY,40.6802121,-73.8499659,"mosques in Queens, NYC"
Fultoli Jame masjid & islamic institute ozone park inc.,"84-05 101st Ave, Ozone Park, NY 11416, United States",Ozone Park,NY,11416,ChIJZ8cf6O1dwokR_eYCUT2vzKg,40.6818081,-73.8551351,"mosques in Queens, NYC"
Albanian American Islamic Center,"72-24 Myrtle Ave, Glendale, NY 11385, United States",Glendale,NY,11385,ChIJg_3xIHhewokRa0Bfp2CePVU,40.7021272,-73.8773491,"mosques in Queens, NYC"
Masjid and Islamic Center of Ridgewood,"10-19 Wyckoff Ave, Flushing, NY 11385, United States",Flushing,NY,11385,ChIJ6bEWDJJdwokRQKKRHllgbcM,40.6957359,-73.903869,"mosques in Queens, NYC"
As-Siddiq Muslim Organization,"117-25 133rd St, South Ozone Park, NY 11420, United States",South Ozone Park,NY,11420,ChIJEw2kJdNgwokRaiD2PiSdlWs,40.676067,-73.8058052,"mosques in Queens, NYC"
Baitul Mamur Mosque and Community Center,"1033 Glenmore Ave, Brooklyn, NY 11208, United States",Brooklyn,NY,11208,ChIJ2Z4YLrldwokRw4rtSdN0F4U,40.67686399999999,-73.8718057,"mosques in Queens, NYC"
Ozone Park Islamic Center,"104-23 103rd St, Ozone Park, NY 11417, United States",Ozone Park,NY,11417,ChIJa6ghyNpnwokRO4kQA1PQAmY,40.6811006,-73.8372687,"mosques in Queens, NYC"
Masjid Dar Al-Istiqamah (NYICCI),"1239 Belmont Ave, Brooklyn, NY 11208, United States",Brooklyn,NY,11208,ChIJrTB4UJRdwokR9J3j_a70R0s,40.6754245,-73.8617501,"mosques in Queens, NYC"
Al-Abidin Mosque,"104-14 127th St #3008, South Richmond Hill, NY 11419, United States",South Richmond Hill,NY,11419,ChIJ9ads8zVnwokRZnsteETwYsc,40.688287,-73.8178267,"mosques in Queens, NYC"
Elmhurst Islamic Center Inc,"87-07 55th Ave, Elmhurst, NY 11373, United States",Elmhurst,NY,11373,ChIJX5CX_k1ewokRf5yVqVM8wpE,40.7352151,-73.8767775,"mosques in Queens, NYC"
Masjid Eesa ibn Maryam,"90-20 191st St, Hollis, NY 11423, United States",Hollis,NY,11423,ChIJJVQNFW1hwokRuFTOREOfJJo,40.7132704,-73.76949309999999,"mosques in Queens, NYC"
Jamiah Islamic Center,"89-50 Woodhaven Blvd, Woodhaven, NY 11421, United States",Woodhaven,NY,11421,ChIJ6c-LqPtdwokRAjGK7YGsIFI,40.6899174,-73.8504123,"mosques in Queens, NYC"
Darus Salaam Mosque New York Inc,"148-16 87th Rd, Jamaica, NY 11435, United States",Jamaica,NY,11435,ChIJA0gdbcNgwokRir9PMgwWiDA,40.706625,-73.808644,"mosques in Queens, NYC"
Al-Hikmah Mosque,"48-01 31st Ave, Astoria, NY 11103, United States",Astoria,NY,11103,ChIJu78KaBZfwokR8jVdepzUW1k,40.7584342,-73.9103547,"mosques in Queens, NYC"
Masjid Ar-Rahman,"98-10 211th St, Queens Village, NY 11429, United States",Queens Village,NY,11429,ChIJISzVdX1hwokRA6s1TNY9wBo,40.7139906,-73.74918790000001,"mosques in Queens, NYC"
"Masjid on the Van Wyck of New York, Inc. (Ala Ahlus Sunnah wal Jama'ah","109-06 Van Wyck Expy, South Ozone Park, NY 11420, United States",South Ozone Park,NY,11420,ChIJUSG5PjJnwokRja8LAV_aUjk,40.6867446,-73.80828079999999,"mosques in Queens, NYC"
Masjid Nur Allah,"97-05 Horace Harding Expy #3, Corona, NY 11368, United States",Corona,NY,11368,ChIJ4RNBGjVewokRe0c_DB2xTZ0,40.7355886,-73.8620394,"mosques in Queens, NYC"
Masjid Baitul Gaffar,"86-81 102nd St, Richmond Hill, NY 11418, United States",Richmond Hill,NY,11418,ChIJN4Z63TpdwokRBVK7WHX6qDs,40.694727,-73.8450453,"mosques in Queens, NYC"
Hazrat Abu Bakr Siddique,"141-47 33rd Ave, Flushing, NY 11354, United States",Flushing,NY,11354,ChIJL7xwPRxgwokR9iI9uNcwT-g,40.7683737,-73.82501719999999,"mosques in Queens, NYC"
Al-Quba Mosque,"121-10 Hillside Ave., Richmond Hill, NY 11418, United States",Richmond Hill,NY,11418,ChIJ5_1OOrBgwokRhmhpUnCo2oA,40.701778,-73.82916569999999,"mosques in Queens, NYC"
Al-Iman Mosque,"24-30 Steinway St, Long Island City, NY 11103, United States",Long Island City,NY,11103,ChIJcd40bWpfwokRarqRDvYtYAM,40.768471,-73.9115833,"mosques in Queens, NYC"
Masjid Al-Koaba South Jamaica Islamic Center,"107-24 Inwood St, Jamaica, NY 11435, United States",Jamaica,NY,11435,ChIJVcqX0dJgwokRTBuweZcyDZA,40.6904948,-73.80430439999999,"mosques in Queens, NYC"
"Islamic Center of Queens NY, Inc.","57-16 37th Ave, Woodside, NY 11377, United States",Woodside,NY,11377,ChIJ28NelhtfwokRLCNt01zh3NY,40.7501182,-73.90459,"mosques in Queens, NYC"
Masjid Sunnat-ul-Jamaat,"112-03 101st Ave, South Richmond Hill, NY 11419, United States",South Richmond Hill,NY,11419,ChIJc6DrklFnwokRMlZtHbF9tH0,40.6884761,-73.8316851,"mosques in Queens, NYC"
Dar Al Taqwa Islamic Center,"40-20 159th St, Flushing, NY 11358, United States",Flushing,NY,11358,ChIJlbhUhiVgwokRK2dEx2XV7TY,40.7625131,-73.80669929999999,"mosques in Queens, NYC"
Al-Amin Jame Masjid & Islamic Center,"35-19 36th Ave, Long Island City, NY 11106, United States",Long Island City,NY,11106,ChIJGW7toi9fwokR9jQL1E7cMGI,40.75489109999999,-73.9258468,"mosques in Queens, NYC"
Islamic Center of Jackson Heights - Masjid Abu Huraira,"78-04 31st Ave, East Elmhurst, NY 11370, United States",East Elmhurst,NY,11370,ChIJnwDFnotfwokRoER0plLuQ9M,40.758698,-73.8895642,"mosques in Queens, NYC"
Al-Saaliheen Mosque,"72-55 Kissena Blvd #2, Flushing, NY 11367, United States",Flushing,NY,11367,ChIJ5YgBJvRgwokRamPsmO6ir-w,40.7276229,-73.8129926,"mosques in Queens, NYC"
Woodhaven Jame Mosque,"75-10 Jamaica Ave, Jamaica, NY 11421, United States",Jamaica,NY,11421,ChIJvRkqeN1dwokRke3kOY7pxug,40.69139089999999,-73.86607529999999,"mosques in Queens, NYC"
Bosnian-Herzegovinian Islamic Center New York,"37-46 Crescent St, Long Island City, NY 11101, United States",Long Island City,NY,11101,ChIJE5c5Ky1fwokRvexeB1_4tZk,40.7559847,-73.9358116,"mosques in Queens, NYC"
Islamic Circle of North America (ICNA),"166-26 89th Ave, Jamaica, NY 11432, United States",Jamaica,NY,11432,ChIJ-0gLAyBhwokRTjMvNAoDzIg,40.708152,-73.794282,"mosques in Queens, NYC"
Al-Falah Mosque,"42-12 National St, Corona, NY 11368, United States",Corona,NY,11368,ChIJz4vQbMhfwokRQaKM6vC91vs,40.74721479999999,-73.8638209,"mosques in Queens, NYC"
Masjid Mission Center (Haji Camp Masjid),"87-26 175th St, Jamaica, NY 11432, United States",Jamaica,NY,11432,ChIJQVkvPBlhwokRk9RNWFcohds,40.7108267,-73.7874884,"mosques in Queens, NYC"
Astoria Islamic Center,"18-22 Astoria Blvd, Astoria, NY 11102, United States",Astoria,NY,11102,ChIJVQc7Lk9fwokR5a7DIe8cunE,40.7721611,-73.9263424,"mosques in Queens, NYC"
Fultoli Islamic Center,"84-51 Parsons Blvd, Jamaica, NY 11432, United States",Jamaica,NY,11432,ChIJpzkrzJRgwokRRwrhs96_ekk,40.7128769,-73.8063636,"mosques in Queens, NYC"
Masjid Al-Insan,"109-56 164th Pl, Jamaica, NY 11433, United States",Jamaica,NY,11433,ChIJcQp1u-xhwokRpx28d1RAjnM,40.6941786,-73.78757150000001,"mosques in Queens, NYC"
Masjid Hamza Islamic Center,"202 Stuart Ave, Valley Stream, NY 11580, United States",Valley Stream,NY,11580,ChIJs8LPRY5jwokRNNJagxfUY3E,40.68579099999999,-73.716208,"mosques in Queens, NYC"
Madani Mosque Inc,"41-51 69th St, Woodside, NY 11377, United States",Woodside,NY,11377,ChIJMzPj5gFfwokR-WqT7Ndx9LQ,40.7430618,-73.89555849999999,"mosques in Queens, NYC"
Richmond Hill Jame Masjid & Islamic Center,"125-09 Jamaica Ave, Jamaica, NY 11418, United States",Jamaica,NY,11418,ChIJLYbuxLBgwokRyHTLbNHP8oI,40.701139,-73.8253328,"mosques in Queens, NYC"
Masjid Dar-ul Furqan,"35-06 72nd St, Jackson Heights, NY 11372, United States",Jackson Heights,NY,11372,ChIJr_VucAZfwokRrHTxaMoOy14,40.75047,-73.89406919999999,"mosques in Queens, NYC"
Masjid Bilal Queens,"121-03 Sutphin Blvd, Jamaica, NY 11434, United States",Jamaica,NY,11434,ChIJE_UDWABnwokR55uvt2N9ayk,40.6772059,-73.79076069999999,"mosques in Queens, NYC"
Masjid Tawhid (Darut Tawhid),"124-07 Jamaica Ave, Richmond Hill, NY 11418, United States",Richmond Hill,NY,11418,ChIJFY3F5bBgwokRQyR7NTAz9jY,40.7009716,-73.82617429999999,"mosques in Queens, NYC"
Al-Khoei Foundation,"89-89 Van Wyck Expy, Jamaica, NY 11435, United States",Jamaica,NY,11435,ChIJ6evrhchgwokRVg7zSrFR2e4,40.7008962,-73.8150139,"mosques in Queens, NYC"
Islamic Unity & Cultural Center,"114-11 91st Ave, Richmond Hill, NY 11418, United States",Richmond Hill,NY,11418,ChIJiRLJm7ZhwokRKyze-vFZwTw,40.6950283,-73.8329236,"mosques in Queens, NYC"
Masjid El-Ber,"36-05 30th St, Astoria, NY 11106, United States",Astoria,NY,11106,ChIJA4xL5C1fwokRCRwbf0OLFJw,40.7568086,-73.9305112,"mosques in Queens, NYC"
Islamic Research And Dawah Center,"406 Autumn Ave, Brooklyn, NY 11208, United States",Brooklyn,NY,11208,ChIJR7genMBdwokR6NoNYNTPXys,40.6798602,-73.8694526,"mosques in Queens, NYC"
Masjid Al Taufiq,"41-02 Forley St, Elmhurst, NY 11373, United States",Elmhurst,NY,11373,ChIJH5taQ65fwokR-6nA4G6DNus,40.7467851,-73.879412,"mosques in Queens, NYC"
Masjid Abubakar & Community Center,"116-45 Sutphin Blvd, Jamaica, NY 11434, United States",Jamaica,NY,11434,ChIJFRDYVtZmwokRTPO--xbI3Wc,40.6813716,-73.7922076,"mosques in Queens, NYC"
MAS Queens Center,"46-01 20th Ave, Astoria, NY 11105, United States",Astoria,NY,11105,ChIJZW9jYHpfwokRcydISPkOlh4,40.7738946,-73.89780689999999,"mosques in Queens, NYC"
Masjid Omar Ben Abdel-Aziz,"88-29 161st St, Jamaica, NY 11432, United States",Jamaica,NY,11432,ChIJAWNkd95gwokRsNqgphqeRPo,40.7074921,-73.8005197,"mosques in Queens, NYC"
Masjid- MUNA Center of South Jamaica,"164-38 108th Ave, South Jamaica, NY 11433, United States",South Jamaica,NY,11433,ChIJY3jDX6VhwokRVyfK5Cqk654,40.6973093,-73.7890264,"mosques in Queens, NYC"
Jackson Heights Islamic Center,"71-20 Roosevelt Ave, Flushing, NY 11372, United States",Flushing,NY,11372,ChIJbYpfWwFfwokRMduJmdvsX_w,40.7463997,-73.8938814,"mosques in Queens, NYC"
MAS Bronx Muslim Center (Muslim American Society of Upper New York),"702 Rhinelander Ave, Bronx, NY 10462, United States",Bronx,NY,10462,ChIJjcF6GZj0wokRUPgqK4Vs0oU,40.8474373,-73.8665448,"mosques in Bronx, NYC"
The Abrar Mosque,"3016 Bailey Ave, Bronx, NY 10463, United States",Bronx,NY,10463,ChIJ0aDqwjHzwokRNH0UBBZ0wDg,40.8764898,-73.9034538,"mosques in Bronx, NYC"
Parkchester Jame Masjid,"1203 Virginia Ave, Bronx, NY 10472, United States",Bronx,NY,10472,ChIJPcdF6MP0wokRNWH2mUgAXlI,40.8307029,-73.8608854,"mosques in Bronx, NYC"
Islamic Center,"2481 Belmont Ave, Bronx, NY 10458, United States",Bronx,NY,10458,ChIJN8T_CoH0wokRSMToZ7bpcz8,40.8568773,-73.88462,"mosques in Bronx, NYC"
Baitul Aman Islamic Center Inc.,"2351 Newbold Ave, Bronx, NY 10462, United States",Bronx,NY,10462,ChIJJUpOdcr0wokRFrzGf1Jr7OY,40.83419079999999,-73.8462861,"mosques in Bronx, NYC"
Bronx Islamic Cultural Center (Masjid Annasr),"50 E Tremont Ave, Bronx, NY 10453, United States",Bronx,NY,10453,ChIJ-Y-DuW30wokRZbeGA_4-6KE,40.8511491,-73.90837739999999,"mosques in Bronx, NYC"
North Bronx Islamic Center,"261 E 206th St, Bronx, NY 10467, United States",Bronx,NY,10467,ChIJg0MyBnLzwokRytJt3TqYvTQ,40.8750637,-73.8803058,"mosques in Bronx, NYC"
Masjid Noorul Huda Islamic Center,"3033 Young Ave, Bronx, NY 10469, United States",Bronx,NY,10469,ChIJSWONYEnzwokRF7XAY5xWbe8,40.8703925,-73.8481485,"mosques in Bronx, NYC"
Madinah Masjid,"834 Brady Ave, Bronx, NY 10462, United States",Bronx,NY,10462,ChIJBSlgnaH0wokRfJRe6sCU7UU,40.8521939,-73.8624877,"mosques in Bronx, NYC"
The Bronx Islamic Society,"1726 E 172nd St, Bronx, NY 10472, United States",Bronx,NY,10472,ChIJa7PbXOn0wokRYsVSwMbk66M,40.83235579999999,-73.8699068,"mosques in Bronx, NYC"
Sultan Jamia Mosque,"2501 Laconia Ave, Bronx, NY 10469, United States",Bronx,NY,10469,ChIJ62AEf7LzwokRwY4jPNCgSnY,40.8631927,-73.8560967,"mosques in Bronx, NYC"
Bronx Muslim Center USA Inc,"2531 Davidson Ave, Bronx, NY 10468, United States",Bronx,NY,10468,ChIJbzFFIIbzwokRqGoCYW0iHcs,40.8653723,-73.9005172,"mosques in Bronx, NYC"
Baitul Maamur Jame Masjid,"1511 St Peters Ave, Bronx, NY 10461, United States",Bronx,NY,10461,ChIJMcqo-rP0wokRmJlXqAiEu5U,40.8399842,-73.8469568,"mosques in Bronx, NYC"
Masjid Taqwa Islamic Center,"1510 Parker St, Bronx, NY 10462, United States",Bronx,NY,10462,ChIJ0-Zt2bX0wokRQ6NL3ZbVn8M,40.8376332,-73.8490513,"mosques in Bronx, NYC"
"Futa Islamic Center, Inc.","3400 Third Ave, Bronx, NY 10456, United States",Bronx,NY,10456,ChIJGc8s_Ev0wokRrLvhJC16x08,40.82802360000001,-73.9069074,"mosques in Bronx, NYC"
Islamic Cultural Center of the Bronx,"371 E 166th St, Bronx, NY 10456, United States",Bronx,NY,10456,ChIJx2tDZzb0wokRwfEo1PoXx70,40.8296104,-73.9125219,"mosques in Bronx, NYC"
Masjid Taqwa,"1201 Southern Blvd, Bronx, NY 10459, United States",Bronx,NY,10459,ChIJL7yKAVf0wokRgLrwtPVJupw,40.8286281,-73.8920732,"mosques in Bronx, NYC"
West Bronx Jame Masjid and Islamic Center,"2123 Grand Ave, Bronx, NY 10453, United States",Bronx,NY,10453,ChIJl3dIyHP0wokRFPLqBP6S-xk,40.8559014,-73.9078786,"mosques in Bronx, NYC"
Al-Quba Muslim Center,"1215 Grand Concourse, Bronx, NY 10452, United States",Bronx,NY,10452,ChIJdws9-jn0wokRQYmd6_Gp1tQ,40.8350041,-73.9179606,"mosques in Bronx, NYC"
Masjidfawzan,"2042 Webster Ave, Bronx, NY 10457, United States",Bronx,NY,10457,ChIJ4eCjMWX0wokRS-zWOAfXwkM,40.8512248,-73.8985431,"mosques in Bronx, NYC"
Baitul Islam Masjid & Community Center,"2107 Davidson Ave, Bronx, NY 10453, United States",Bronx,NY,10453,ChIJCxFZ0XP0wokR08fhICZXe8U,40.8555876,-73.9070741,"mosques in Bronx, NYC"
Masjid Al Aqsa,"1501 St Peters Ave, Bronx, NY 10461, United States",Bronx,NY,10461,ChIJ3XhF6Hj1wokRbBYok2ZPhu4,40.8398299,-73.84672789999999,"mosques in Bronx, NYC"
Gulzar e Madinah Masjid,"2162 Muliner Ave, Bronx, NY 10462, United States",Bronx,NY,10462,ChIJNf8ZkKD0wokRKy_qUruii4c,40.8555638,-73.8617107,"mosques in Bronx, NYC"
Castle Hill Jame Masjid,"430 Torry Ave, Bronx, NY 10473, United States",Bronx,NY,10473,ChIJY7eEOOn1wokRIn-sg5yk1RM,40.8155022,-73.8491311,"mosques in Bronx, NYC"
Muqbel Alwadaee,"615E E 180th St, Bronx, NY 10457, United States",Bronx,NY,10457,ChIJjWpuwmL0wokRR-SnPb6Ef24,40.8493317,-73.8909709,"mosques in Bronx, NYC"
Yankasa Masjid,"1707 Townsend Ave, Bronx, NY 10453, United States",Bronx,NY,10453,ChIJOedhLGv0wokRIpnJRYDR3AY,40.8464755,-73.9122217,"mosques in Bronx, NYC"
Aljaned Islamic Center,"984 Intervale Ave, Bronx, NY 10459, United States",Bronx,NY,10459,ChIJv15XPlP0wokR7mvQ38-JYJ0,40.8228628,-73.8965061,"mosques in Bronx, NYC"
Pelham Bay Al-Madina Jame Masjid,"2812 Dudley Ave, Bronx, NY 10461, United States",Bronx,NY,10461,ChIJjXIIVACLwokRqjFz_Weldp0,40.8393521,-73.8356333,"mosques in Bronx, NYC"
MASJID ANSARUDEEN ISLAMIC CENTER,"641 E 224th St, Bronx, NY 10466, United States",Bronx,NY,10466,ChIJHb50sfTzwokRXLtFEvKmncM,40.8879695,-73.86281199999999,"mosques in Bronx, NYC"
Bangla Bazar Jame Masjid,"1351 Odell St, Bronx, NY 10462, United States",Bronx,NY,10462,ChIJueIR-Mf0wokRauXjWfTydf4,40.8355107,-73.8542101,"mosques in Bronx, NYC"
All Muslims Center,"104 W 168th St, Bronx, NY 10452, United States",Bronx,NY,10452,ChIJIR0C5zr0wokRk_9kFsCftqA,40.8382169,-73.9244861,"mosques in Bronx, NYC"
PIC (Parkchester Islamic Center),"1375 Virginia Ave, Bronx, NY 10462, United States",Bronx,NY,10462,ChIJX3DouUwPZkARFQHTNpj3Gsc,40.835324,-73.862251,"mosques in Bronx, NYC"
Al Haram Masjid USA INC.,"3134 E 205th St, Bronx, NY 10468, United States",Bronx,NY,10468,ChIJ_w-g73XzwokRKlJSkF37_UU,40.8757756,-73.8881095,"mosques in Bronx, NYC"
Masjid Al Huda,"3979 White Plains Rd, Bronx, NY 10466, United States",Bronx,NY,10466,ChIJ2TPndSPzwokRLvazUd39DRM,40.8880228,-73.8605633,"mosques in Bronx, NYC"
Alruqen Alyamani Mosque,"3305 Wallace Ave, Bronx, NY 10467, United States",Bronx,NY,10467,ChIJvfXDJADzwokRHQjmcE3syQ8,40.8730035,-73.8644778,"mosques in Bronx, NYC"
"Darou Salam Islamic Community,Inc.","The Bronx, 677 Elton Ave #2a, Bronx, NY 10455, United States",Bronx,NY,10455,ChIJ-Ratj8n1wokRLZm4LSIa5YM,40.81877619999999,-73.9148924,"mosques in Bronx, NYC"
"Unionport Jame Masjid, Inc.","2126 Watson Ave, Bronx, NY 10472, United States",Bronx,NY,10472,ChIJoeVjcc_0wokRc8siqH5UEGI,40.8293931,-73.85252559999999,"mosques in Bronx, NYC"
Masjid Mubarak Muslim Community Center,"1536 Jesup Ave, Bronx, NY 10452, United States",Bronx,NY,10452,ChIJEV-L_T30wokRHErvafsUrfo,40.8442275,-73.9183532,"mosques in Bronx, NYC"
Masjid e Hamza,"3417 Knox Pl, Bronx, NY 10467, United States",Bronx,NY,10467,ChIJNwmVkAbzwokRb-6CIg4rzUc,40.881779,-73.8839005,"mosques in Bronx, NYC"
Masjid Sidiki,"1462 Boston Rd, Bronx, NY 10459, United States",Bronx,NY,10459,ChIJN1a6YVr0wokRTCsSaJPt6oQ,40.8340148,-73.89495219999999,"mosques in Bronx, NYC"
Masjid Salam,"911 Longwood Ave, Bronx, NY 10459, United States",Bronx,NY,10459,ChIJ2dEKlK31wokRutdvUhgfJ6k,40.8185724,-73.8996792,"mosques in Bronx, NYC"
Masjid al-Ummah: Community Mosque,"793 Elsmere Pl, Bronx, NY 10460, United States",Bronx,NY,10460,ChIJZ99JPVX1wokRytLxJcuqmrQ,40.8433477,-73.8884044,"mosques in Bronx, NYC"
The African Islamic Center,"2044 Benedict Ave, Bronx, NY 10462, United States",Bronx,NY,10462,ChIJ3xayo8f0wokRhEpxniL8VqU,40.8344274,-73.856127,"mosques in Bronx, NYC"
Masjid Al-Ridwan Islamic Center,"435 E 166th St, Bronx, NY 10456, United States",Bronx,NY,10456,ChIJKewgKTT0wokR4snzfw4-z3E,40.828651,-73.9096383,"mosques in Bronx, NYC"
Masjid-Ar -Rahmah,"2252 Webster Ave, Bronx, NY 10457, United States",Bronx,NY,10457,ChIJQ5cw73v0wokRQTEE9DVPGrw,40.85558109999999,-73.8958062,"mosques in Bronx, NYC"
Nur Al Islam Mosque,"215 McClellan St, Bronx, NY 10456, United States",Bronx,NY,10456,ChIJxfyTGDf0wokReU3UIhOG3CU,40.8324677,-73.9168068,"mosques in Bronx, NYC"
Musa Mosque,"633 E 189th St, Bronx, NY 10458, United States",Bronx,NY,10458,ChIJh_wskRz0wokRYgw40X6sqOs,40.8568394,-73.8847057,"mosques in Bronx, NYC"
Masjid Al-Tawbah,"1347 Webster Ave, Bronx, NY 10456, United States",Bronx,NY,10456,ChIJUxRpXUb0wokR-2zSkUgeXzk,40.83534760000001,-73.908137,"mosques in Bronx, NYC"
Mount Hope Masjid,"24 Mt Hope Pl, Bronx, NY 10453, United States",Bronx,NY,10453,ChIJUfiLj2z0wokRWSlq5RR9W5w,40.849069,-73.910119,"mosques in Bronx, NYC"
Islamic Falah of America Inc.,"115 E 168th St, Bronx, NY 10452, United States",Bronx,NY,10452,ChIJje5Djjn0wokRWPYssEBSsDw,40.836313,-73.91772639999999,"mosques in Bronx, NYC"
Allerton Islamic Center,"759 Allerton Ave, Bronx, NY 10467, United States",Bronx,NY,10467,ChIJX9F022bzwokRkbBQs9--PpY,40.8656348,-73.8649683,"mosques in Bronx, NYC"
Baitul Abrar Masjid,"1860 Archer St, Bronx, NY 10462, United States",Bronx,NY,10462,ChIJ_z4omiX1wokR6aaJyiCOD7I,40.8377193,-73.86424319999999,"mosques in Bronx, NYC"
Soundview Masjid,"1749 Seward Ave, Bronx, NY 10473, United States",Bronx,NY,10473,ChIJ-1NYVQD1wokR7J4XD4_0hOU,40.8189768,-73.8658136,"mosques in Bronx, NYC"
Omar Mosque,"2535 Grand Concourse, Bronx, NY 10468, United States",Bronx,NY,10468,ChIJQTT1AfbzwokR9FZ73OT4sq8,40.8634586,-73.8968719,"mosques in Bronx, NYC"
Masjid Darul Iman,"1141 Ward Ave, Bronx, NY 10472, United States",Bronx,NY,10472,ChIJYw1tFQ31wokRhPI-ZHPVNLs,40.8275748,-73.8771771,"mosques in Bronx, NYC"
Masjidus Sabur,"2975 Bainbridge Ave, Bronx, NY 10458, United States",Bronx,NY,10458,ChIJx5vlF3fzwokR2zGUCq8MT-I,40.8710928,-73.8845096,"mosques in Bronx, NYC"
Masjid Barakat-ul Islamia,"841 E 167th St, Bronx, NY 10459, United States",Bronx,NY,10459,ChIJR2xZAAD1wokR-djwJDWooUk,40.82646,-73.8982091,"mosques in Bronx, NYC"
Ogden Islamic center: Masjid Daaril Bir,"169 W 164th St, Bronx, NY 10452, United States",Bronx,NY,10452,ChIJjTY23i70wokRjJWop4kUmCA,40.8332506,-73.9300276,"mosques in Bronx, NYC"
Islamia Sunna Wal Jam'Ah,"24 Mt Hope Pl, Bronx, NY 10453, United States",Bronx,NY,10453,ChIJtQ9lhWz0wokRTIzZeQOw-bE,40.8490709,-73.91012909999999,"mosques in Bronx, NYC"
Gawsiyah Masjid,"3001 Barkley Ave, Bronx, NY 10465, United States",Bronx,NY,10465,ChIJEdl15fyLwokRssqXn5L1Q6s,40.8322237,-73.8243043,"mosques in Bronx, NYC"
MAS Staten Island Center (MASSI Center),"180 Burgher Ave, Staten Island, NY 10304, United States",Staten Island,NY,10304,ChIJE7z41elOwokR6hQNGGdsIi8,40.59242709999999,-74.0919466,"mosques in Staten Island, NYC"
Muslim Center of Staten Island,"2574 Arthur Kill Rd, Staten Island, NY 10309, United States",Staten Island,NY,10309,ChIJlbH6Jc-1w4kRBwUWADzrIn0,40.5522233,-74.2188551,"mosques in Staten Island, NYC"
Islamic Center of Staten Island,"365 Veterans Rd W, Staten Island, NY 10309, United States",Staten Island,NY,10309,ChIJn9VwLtW0w4kRjGYPKynMmdU,40.55222,-74.21802869999999,"mosques in Staten Island, NYC"
Noor Al-Islam Society,"3075 Richmond Ter #2, Staten Island, NY 10303, United States",Staten Island,NY,10303,ChIJX_sTo6NNwokR_W4q7WDeBfo,40.638101,-74.16182289999999,"mosques in Staten Island, NYC"
Albanian Islamic Cultural Center,"307 Victory Blvd, Staten Island, NY 10301, United States",Staten Island,NY,10301,ChIJxY884DZOwokRMxU11Ou0fHE,40.6348055,-74.0859866,"mosques in Staten Island, NYC"
Al Noorani Islamic Center of Staten Island,"625 South Ave, Staten Island, NY 10303, United States",Staten Island,NY,10303,ChIJiTPseVlNwokR6yh28nksbl8,40.623473,-74.1672732,"mosques in Staten Island, NYC"
Al Ihsan Mosque,"406 St Marks Pl, Staten Island, NY 10301, United States",Staten Island,NY,10301,ChIJ-dznewBPwokRqqR218hFypw,40.6398164,-74.0776209,"mosques in Staten Island, NYC"
Masjid Un-Noor,"24 Steuben St, Staten Island, NY 10304, United States",Staten Island,NY,10304,ChIJQSN5i5JPwokRh__X6x4XUho,40.6113603,-74.0875477,"mosques in Staten Island, NYC"
Islamic Cultural Foundation of America,"740 Delafield Ave, Staten Island, NY 10310, United States",Staten Island,NY,10310,ChIJkSjawxpPwokRhUJHSeILkyo,40.6290311,-74.12335379999999,"mosques in Staten Island, NYC"
Masjid Al-Wadood,"624 Willowbrook Rd, Staten Island, NY 10314, United States",Staten Island,NY,10314,ChIJr4jkD5hNwokRGAKxbaxwnO8,40.6097192,-74.14732219999999,"mosques in Staten Island, NYC"
MCC: Muslim Community Center (Staten Island),"332 Broadway, Staten Island, NY 10310, United States",Staten Island,NY,10310,ChIJhT_soO9PwokRGgYYQKdHnZI,40.6330939,-74.1170293,"mosques in Staten Island, NYC"
Muslim Majlis of Staten Island,"104 Rhine Ave, Staten Island, NY 10304, United States",Staten Island,NY,10304,ChIJxcL5DPhOwokR2GUpR4U6Djs,40.61105329999999,-74.087351,"mosques in Staten Island, NYC"
Masjid Al-Rahman,"333 86th St, Brooklyn, NY 11209, United States",Brooklyn,NY,11209,ChIJFW2Q_19FwokR-Icc1JmzbBM,40.6233705,-74.0299766,"mosques in Staten Island, NYC"
Muslim Majlis of Staten Island,"872 Edgegrove Ave, Staten Island, NY 10309, United States",Staten Island,NY,10309,ChIJQ24uh8NKwokRgJHe1bA9K_E,40.535334,-74.2001779,"mosques in Staten Island, NYC"
Masjid Malcolm Shabazz,"102 W 116th St, New York, NY 10026, United States",New York,NY,10026,ChIJw6noUxD2wokRnj5_OciSlA8,40.8020169,-73.95023929999999,"mosques near Harlem, NYC"
Harlem Islamic Center,"2001 Adam Clayton Powell Jr Blvd, New York, NY 10027, United States",New York,NY,10027,ChIJVXKcDGT3wokRGWPL2L13y70,40.8057479,-73.9502816,"mosques near Harlem, NYC"
Masjid Assalam Wal Khair,"527 Malcolm X Blvd, New York, NY 10037, United States",New York,NY,10037,ChIJYbZ453b2wokRZqD4aPMMskI,40.8151884,-73.940406,"mosques near Harlem, NYC"
The Mosque of Islamic Brotherhood,"130 W 113th St, New York, NY 10026, United States",New York,NY,10026,ChIJrYKdpRD2wokRvObFDYGXqy0,40.8007186,-73.95281729999999,"mosques near Harlem, NYC"
Muhammad Mosque No. 7,"106-08 W 127th St, New York, NY 10027, United States",New York,NY,10027,ChIJVWT303L2wokRHapEUOh7Vl0,40.807751,-73.942049,"mosques near Harlem, NYC"
Islamic Cultural Center of New York (ICCNY),"1711 3rd Ave, New York, NY 10029, United States",New York,NY,10029,ChIJ40MraU1ZwokR4JDj7OK64oM,40.785534,-73.9485144,"mosques near Harlem, NYC"
Harlem Islamic Cultural Center,"108 E 128th St, New York, NY 10035, United States",New York,NY,10035,ChIJhUjolQr2wokRkAxbj6_CrMI,40.8066127,-73.937135,"mosques near Harlem, NYC"
Masjid Al-Firdaus,"207 W 135th St, New York, NY 10030, United States",New York,NY,10030,ChIJCxJBBnH2wokRR1rNwCvplzU,40.8157541,-73.9443512,"mosques near Harlem, NYC"
96 mosqué,"222 E 97th St, New York, NY 10128, United States",New York,NY,10128,ChIJVZJzQE1ZwokRPDlfPjkJpBU,40.78545870000001,-73.9485435,"mosques near Harlem, NYC"
Masjed Al-Falah,"2536 Frederick Douglass Blvd, New York, NY 10030, United States",New York,NY,10030,ChIJSUnvSnD2wokRxeZ8iKGKtO4,40.8166389,-73.9462408,"mosques near Harlem, NYC"
Daily prayer Times NYC,"1711 3rd Ave, New York, NY 10029, United States",New York,NY,10029,ChIJOUjyEKZYwokRwwY1WFygjlM,40.7855765,-73.9485819,"mosques near Harlem, NYC"
Masjid Aqsa-Salam,"23 E 115th St, New York, NY 10029, United States",New York,NY,10029,ChIJW6C-jw_2wokRZhLf9YxH4fA,40.7996858,-73.9456438,"mosques near Harlem, NYC"
FUTA ISLAMIC CENTER OF HARLEM,"32 W 123rd St, New York, NY 10027, United States",New York,NY,10027,ChIJ_Qe3vBb3wokRvToJUY1xdBc,40.8062191,-73.9461024,"mosques near Harlem, NYC"
Muhammad Ali Islamic Center,"203 W 133rd St, New York, NY 10030, United States",New York,NY,10030,ChIJVVVpgnH2wokRY38KViKTmSc,40.8142268,-73.9449137,"mosques near Harlem, NYC"
Sopey Shaykhul Khadeem Mosque,"247 W 116th St, New York, NY 10026, United States",New York,NY,10026,ChIJ1SlauBb2wokRfYETjlzZw-0,40.8042357,-73.9545213,"mosques near Harlem, NYC"
Timbuktu Islamic Center Inc,"350 W 145th St, New York, NY 10039, United States",New York,NY,10039,ChIJM1iYY3j2wokRIXu9iAlnn4w,40.8237043,-73.9443565,"mosques near Harlem, NYC"
Annur Islamic Center Inc.,"213 W 111th St, New York, NY 10026, United States",New York,NY,10026,ChIJ27Oc1xn2wokRxpL4ADHq78g,40.8004891,-73.9556796,"mosques near Harlem, NYC"
Naylul Maraam Islamic Center USA,"2157 1st Ave 2ND FL, New York, NY 10029, United States",New York,NY,10029,ChIJzbvP8HP3wokRDe8VdGNcmvo,40.7932081,-73.9377961,"mosques near Harlem, NYC"
The Islamic Community of Mount Sinai,"1190 5th Ave Gp 1 Center, 1st Fl, New York, NY 10029, United States",New York,NY,10029,ChIJcytbCUf3wokRi_5FlivTMIc,40.790511,-73.95358259999999,"mosques near Harlem, NYC"
Al-Rahman Mosque,"575 W 175th St, New York, NY 10033, United States",New York,NY,10033,ChIJjXP12J_2wokRulRVk68Bh6k,40.8454473,-73.93608390000001,"mosques near Harlem, NYC"
Havaz,"New York, NY 10027, United States",New York,NY,10027,ChIJIywin3b3wokRF2eM5Va8hlo,40.8115504,-73.9464769,"mosques near Harlem, NYC"
Malcolm Shabazz Harlem Market,"52 W 116th St, New York, NY 10026, United States",New York,NY,10026,ChIJhdF9TRD2wokROv6jKsY9UDs,40.8013442,-73.948878,"mosques near Harlem, NYC"
Murid Islamic Community in America,"46 Edgecombe Ave, New York, NY 10030, United States",New York,NY,10030,ChIJE6_gGnD2wokRtVtTwzdzSxw,40.8182403,-73.9469342,"mosques near Harlem, NYC"
All Muslims Center,"104 W 168th St, Bronx, NY 10452, United States",Bronx,NY,10452,ChIJIR0C5zr0wokRk_9kFsCftqA,40.8382169,-73.9244861,"mosques near Harlem, NYC"
Masjid Ebun Abass or Masjid Ibn Abass,"2580 Third Ave, Bronx, NY 10454, United States",Bronx,NY,10454,ChIJr4AsysT1wokRZxNz3b7Nkig,40.8114877,-73.9259754,"mosques near Harlem, NYC"
Ogden Islamic center: Masjid Daaril Bir,"169 W 164th St, Bronx, NY 10452, United States",Bronx,NY,10452,ChIJjTY23i70wokRjJWop4kUmCA,40.8332506,-73.9300276,"mosques near Harlem, NYC"
Alislah Islamic culturtal center inc,"1795 Lexington Ave, New York, NY 10029, United States",New York,NY,10029,ChIJDYSVYwD3wokRO6QYhjViIuI,40.79574119999999,-73.9435759,"mosques near Harlem, NYC"
Masjid Al Wadud,"306-308 E 149th St, Bronx, NY 10451, United States",Bronx,NY,10451,ChIJZROjOQD1wokRXnnZtPW1oV0,40.8167362,-73.9214375,"mosques near Harlem, NYC"
Columbia Muslim Prayer Room,"Columbia University Earl Hall, New York, NY 10027, United States",New York,NY,10027,ChIJpzFE8Mb3wokRcdSM6pWj8lU,40.8085649,-73.96266229999999,"mosques near Harlem, NYC"
Hazrat Abu Bakr Siddique,"141-47 33rd Ave, Flushing, NY 11354, United States",Flushing,NY,11354,ChIJL7xwPRxgwokR9iI9uNcwT-g,40.7683737,-73.82501719999999,"mosques near Flushing, Queens"
Dar Al Taqwa Islamic Center,"40-20 159th St, Flushing, NY 11358, United States",Flushing,NY,11358,ChIJlbhUhiVgwokRK2dEx2XV7TY,40.7625131,-73.80669929999999,"mosques near Flushing, Queens"
Al-Saaliheen Mosque,"72-55 Kissena Blvd #2, Flushing, NY 11367, United States",Flushing,NY,11367,ChIJ5YgBJvRgwokRamPsmO6ir-w,40.7276229,-73.8129926,"mosques near Flushing, Queens"
Masjid Syed JamalUddin,"Entrance through, 42-66 149th St, Beech Ave, Flushing, NY 11355, United States",Flushing,NY,11355,ChIJ4Rot9zxgwokR4Ac7zg5mbpU,40.758522,-73.8145337,"mosques near Flushing, Queens"
Masjid and Islamic Center of Ridgewood,"10-19 Wyckoff Ave, Flushing, NY 11385, United States",Flushing,NY,11385,ChIJ6bEWDJJdwokRQKKRHllgbcM,40.6957359,-73.903869,"mosques near Flushing, Queens"
Muslim Center of New York,"137-58 Geranium Ave, Flushing, NY 11355, United States",Flushing,NY,11355,ChIJr-0SaKNhwokRiA8kCZz2WBc,40.7508431,-73.8204482,"mosques near Flushing, Queens"
Masjid Nur Allah,"97-05 Horace Harding Expy #3, Corona, NY 11368, United States",Corona,NY,11368,ChIJ4RNBGjVewokRe0c_DB2xTZ0,40.7355886,-73.8620394,"mosques near Flushing, Queens"
College Point Masjid,"121-14 15th Ave, College Point, NY 11356, United States",College Point,NY,11356,ChIJg4hhbFL1wokRtorPZB0GhKw,40.7841169,-73.8462251,"mosques near Flushing, Queens"
Jackson Heights Islamic Center,"71-20 Roosevelt Ave, Flushing, NY 11372, United States",Flushing,NY,11372,ChIJbYpfWwFfwokRMduJmdvsX_w,40.7463997,-73.8938814,"mosques near Flushing, Queens"
Al-Falah Mosque,"42-12 National St, Corona, NY 11368, United States",Corona,NY,11368,ChIJz4vQbMhfwokRQaKM6vC91vs,40.74721479999999,-73.8638209,"mosques near Flushing, Queens"
Jamaica Muslim Center,"85-37 JMC Way, Jamaica, NY 11432, United States",Jamaica,NY,11432,ChIJjxcp7-FgwokR0Anky0BRMJg,40.7126175,-73.7958441,"mosques near Flushing, Queens"
Masjid Eesa ibn Maryam,"90-20 191st St, Hollis, NY 11423, United States",Hollis,NY,11423,ChIJJVQNFW1hwokRuFTOREOfJJo,40.7132704,-73.76949309999999,"mosques near Flushing, Queens"
Ahlul Bayt Mission Masjid : Foundation of Love USA. مجمع اهل البيت,"41-06 55th St, Flushing, NY 11377, United States",Flushing,NY,11377,ChIJ9YsK0x9fwokRR9-qw1Sljx8,40.7450992,-73.9096493,"mosques near Flushing, Queens"
Islamic Institute of New York,"55-11 Queens Blvd, Flushing, NY 11377, United States",Flushing,NY,11377,ChIJuapcVOBewokRhanS8J9mnZY,40.7424036,-73.9097001,"mosques near Flushing, Queens"
Albanian American Islamic Center,"72-24 Myrtle Ave, Glendale, NY 11385, United States",Glendale,NY,11385,ChIJg_3xIHhewokRa0Bfp2CePVU,40.7021272,-73.8773491,"mosques near Flushing, Queens"
Al-Iman Mosque,"24-30 Steinway St, Long Island City, NY 11103, United States",Long Island City,NY,11103,ChIJcd40bWpfwokRarqRDvYtYAM,40.768471,-73.9115833,"mosques near Flushing, Queens"
East Elmhurst Jame-E-Masjid,"95-01 24th Ave, East Elmhurst, NY 11369, United States",East Elmhurst,NY,11369,ChIJr3N3_JBfwokRSTw-t_oIscw,40.7663755,-73.8746587,"mosques near Flushing, Queens"
JAMIA HANFIA.,"32-13 57th St, Flushing, NY 11377, United States",Flushing,NY,11377,ChIJIYNh8RBfwokRNCZan7Ss6h4,40.7553232,-73.9041075,"mosques near Flushing, Queens"
"Masjid Dar As-sunnah, 234 Bay Ridge Ave. Brooklyn, NY 11220","234 Bay Ridge Ave, Brooklyn, NY 11220, United States",Brooklyn,NY,11220,ChIJ1-edPABFwokRfijbvCFOCvQ,40.6361325,-74.0276222,"mosques near Bay Ridge, Brooklyn"
Maryam Mosque - Community Center of Bay Ridge,"7307 5th Ave, Brooklyn, NY 11209, United States",Brooklyn,NY,11209,ChIJ83bfHQpFwokRIkCEGnWkgcw,40.6307087,-74.0219958,"mosques near Bay Ridge, Brooklyn"
Islamic Society of Bay Ridge,"6807 5th Ave a1, Brooklyn, NY 11220, United States",Brooklyn,NY,11220,ChIJjUxQV1BFwokRSgueFLDVZF8,40.6338102,-74.0207064,"mosques near Bay Ridge, Brooklyn"
Masjid Al-Rahman,"333 86th St, Brooklyn, NY 11209, United States",Brooklyn,NY,11209,ChIJFW2Q_19FwokR-Icc1JmzbBM,40.6233705,-74.0299766,"mosques near Bay Ridge, Brooklyn"
MCC: Muslim Community Center (Brooklyn),"5320 3rd Ave, Brooklyn, NY 11220, United States",Brooklyn,NY,11220,ChIJ-4r4Lq1awokR8tvS-2P7vPo,40.6457245,-74.0170673,"mosques near Bay Ridge, Brooklyn"
Beit El-Maqdis Islamic Center,"6206 6th Ave, Brooklyn, NY 11220, United States",Brooklyn,NY,11220,ChIJ9Wnt0U1FwokR5gvn8mpv3G4,40.6366464,-74.01573429999999,"mosques near Bay Ridge, Brooklyn"
Masjid Hamza,"9126 5th Ave, Brooklyn, NY 11209, United States",Brooklyn,NY,11209,ChIJ_3x_RVlFwokRilmBvgAONtU,40.6181502,-74.029273,"mosques near Bay Ridge, Brooklyn"
Alistiqamah Community Center,"1835 Bay Ridge Pkwy, Brooklyn, NY 11204, United States",Brooklyn,NY,11204,ChIJoSGjk5xFwokROxAAFSpqCtw,40.6130032,-73.99477929999999,"mosques near Bay Ridge, Brooklyn"
Masjid Al-Qaraouyine - South Brooklyn Islamic Center,"7610 3rd Ave, Brooklyn, NY 11209, United States",Brooklyn,NY,11209,ChIJy3rybhdFwokR2mbVJIuqs7g,40.6305007,-74.0283539,"mosques near Bay Ridge, Brooklyn"
South Brooklyn Islamic Center,"234 Bay Ridge Ave, Brooklyn, NY 11220, United States",Brooklyn,NY,11220,ChIJf74GnThFwokRMR0V7ljn2Cw,40.6361392,-74.0276353,"mosques near Bay Ridge, Brooklyn"
Fatih Mosque,"805 60th St, Brooklyn, NY 11220, United States",Brooklyn,NY,11220,ChIJW8G33DlFwokRrJ2AmemTfEA,40.6354496,-74.0091194,"mosques near Bay Ridge, Brooklyn"
Bay Ridge community development center inc.,"461 99th St, Brooklyn, NY 11209, United States",Brooklyn,NY,11209,ChIJkwVwWwBPwokRmgufpW1o5nA,40.6128192,-74.0314626,"mosques near Bay Ridge, Brooklyn"
Brooklyn Islamic Center,"722 Church Ave, Brooklyn, NY 11218, United States",Brooklyn,NY,11218,ChIJ2w5pIDtbwokRxl2FvsYXWTQ,40.6455145,-73.9724401,"mosques near Bay Ridge, Brooklyn"
MOSQUE,"453 AVE, Brooklyn, NY 11220, United States",Brooklyn,NY,11220,ChIJoxz94elFwokRF8ttQsLZzII,40.6385503,-74.015321,"mosques near Bay Ridge, Brooklyn"
Islamic Society of Bay Ridge - Food Distribution Center,"6807 5th Ave a1, Brooklyn, NY 11220, United States",Brooklyn,NY,11220,ChIJ_edHUFBFwokR9k1SbUHP-RM,40.6338642,-74.02068729999999,"mosques near Bay Ridge, Brooklyn"
Al Marwa Islamic Center,"2015 64th St, Brooklyn, NY 11204, United States",Brooklyn,NY,11204,ChIJS61yICBFwokRn_8vuK-ZOT4,40.6169317,-73.9847527,"mosques near Bay Ridge, Brooklyn"
جامع الجودة,"7610 3rd Ave, Brooklyn, NY 11209, United States",Brooklyn,NY,11209,ChIJY17rK_pFwokRjLw-TktQD3U,40.6305222,-74.02834589999999,"mosques near Bay Ridge, Brooklyn"
Nur Al-Islam Mosque,"21 Church Ave, Brooklyn, NY 11218, United States",Brooklyn,NY,11218,ChIJEYNb-ilbwokREvsHRjeT3zw,40.6417829,-73.9824429,"mosques near Bay Ridge, Brooklyn"
Bay Ridge Community Development Center HQ,"6806 5th Ave 2nd Floor, Brooklyn, NY 11220, United States",Brooklyn,NY,11220,ChIJg2KmCDVFwokRaQvROelTYGA,40.6340644,-74.0210047,"mosques near Bay Ridge, Brooklyn"
Al-Farooq Mosque,"554 Atlantic Ave, Brooklyn, NY 11217, United States",Brooklyn,NY,11217,ChIJ1Wfbmq1bwokRUvKq1ayw3VY,40.6846907,-73.9794847,"mosques near Bay Ridge, Brooklyn"
AT Taqwa Inc,"1266 Bedford Ave, Brooklyn, NY 11216, United States",Brooklyn,NY,11216,ChIJywK230BbwokRol74mugarhc,40.6804573,-73.9535324,"mosques near Bay Ridge, Brooklyn"
United American Muslim Association,"5911 8th Ave, Brooklyn, NY 11220, United States",Brooklyn,NY,11220,ChIJvRB1OZ9FwokR60o50NXWA2k,40.6355931,-74.0092415,"mosques near Bay Ridge, Brooklyn"
Umar Mosque,"232 Neptune Ave, Brooklyn, NY 11235, United States",Brooklyn,NY,11235,ChIJmWYmWEJEwokRrD7gL8kI_Qc,40.5812969,-73.9617461,"mosques near Bay Ridge, Brooklyn"
MAS Youth Center,"1933 Bath Ave, Brooklyn, NY 11214, United States",Brooklyn,NY,11214,ChIJUUW6sgtFwokRWf0ESIgBX_c,40.6022402,-74.0027418,"mosques near Bay Ridge, Brooklyn"
Sheepshead Bay Muslim Center,"2812 Voorhies Ave, Brooklyn, NY 11235, United States",Brooklyn,NY,11235,ChIJmYLIvX5EwokR5pYfRJzPfuA,40.5870187,-73.9408435,"mosques near Bay Ridge, Brooklyn"
Masjid Al-Koaba South Jamaica Islamic Center,"107-24 Inwood St, Jamaica, NY 11435, United States",Jamaica,NY,11435,ChIJVcqX0dJgwokRTBuweZcyDZA,40.6904948,-73.80430439999999,"mosques near Jamaica, Queens"
Darus Salaam Mosque New York Inc,"148-16 87th Rd, Jamaica, NY 11435, United States",Jamaica,NY,11435,ChIJA0gdbcNgwokRir9PMgwWiDA,40.706625,-73.808644,"mosques near Jamaica, Queens"
Jamaica Muslim Center,"85-37 JMC Way, Jamaica, NY 11432, United States",Jamaica,NY,11432,ChIJjxcp7-FgwokR0Anky0BRMJg,40.7126175,-73.7958441,"mosques near Jamaica, Queens"
Masjid- MUNA Center of South Jamaica,"164-38 108th Ave, South Jamaica, NY 11433, United States",South Jamaica,NY,11433,ChIJY3jDX6VhwokRVyfK5Cqk654,40.6973093,-73.7890264,"mosques near Jamaica, Queens"
Masjid Eesa ibn Maryam,"90-20 191st St, Hollis, NY 11423, United States",Hollis,NY,11423,ChIJJVQNFW1hwokRuFTOREOfJJo,40.7132704,-73.76949309999999,"mosques near Jamaica, Queens"
"Masjid on the Van Wyck of New York, Inc. (Ala Ahlus Sunnah wal Jama'ah","109-06 Van Wyck Expy, South Ozone Park, NY 11420, United States",South Ozone Park,NY,11420,ChIJUSG5PjJnwokRja8LAV_aUjk,40.6867446,-73.80828079999999,"mosques near Jamaica, Queens"
Masjid Mission Center (Haji Camp Masjid),"87-26 175th St, Jamaica, NY 11432, United States",Jamaica,NY,11432,ChIJQVkvPBlhwokRk9RNWFcohds,40.7108267,-73.7874884,"mosques near Jamaica, Queens"
Masjid Al-Insan,"109-56 164th Pl, Jamaica, NY 11433, United States",Jamaica,NY,11433,ChIJcQp1u-xhwokRpx28d1RAjnM,40.6941786,-73.78757150000001,"mosques near Jamaica, Queens"
Fultoli Islamic Center,"84-51 Parsons Blvd, Jamaica, NY 11432, United States",Jamaica,NY,11432,ChIJpzkrzJRgwokRRwrhs96_ekk,40.7128769,-73.8063636,"mosques near Jamaica, Queens"
Richmond Hill Jame Masjid & Islamic Center,"125-09 Jamaica Ave, Jamaica, NY 11418, United States",Jamaica,NY,11418,ChIJLYbuxLBgwokRyHTLbNHP8oI,40.701139,-73.8253328,"mosques near Jamaica, Queens"
Masjid Abubakar & Community Center,"116-45 Sutphin Blvd, Jamaica, NY 11434, United States",Jamaica,NY,11434,ChIJFRDYVtZmwokRTPO--xbI3Wc,40.6813716,-73.7922076,"mosques near Jamaica, Queens"
Darul Wahid Masjid,"106-42 Ruscoe St, Jamaica, NY 11433, United States",Jamaica,NY,11433,ChIJscRTU0NhwokRs7Fqb1brHLE,40.701992,-73.780321,"mosques near Jamaica, Queens"
Masjid Al-Koaba,"107-06 Inwood St, Jamaica, NY 11435, United States",Jamaica,NY,11435,ChIJKTnLXABhwokRDduHBGjC65w,40.6909006,-73.80474939999999,"mosques near Jamaica, Queens"
As-Siddiq Muslim Organization,"117-25 133rd St, South Ozone Park, NY 11420, United States",South Ozone Park,NY,11420,ChIJEw2kJdNgwokRaiD2PiSdlWs,40.676067,-73.8058052,"mosques near Jamaica, Queens"
"MUNA Center of Jamaica, Ar-Rayyan Mosque","196-43 Foothill Ave, Hollis, NY 11423, United States",Hollis,NY,11423,ChIJUTfhsu5hwokRoKPOb87KrQw,40.718792,-73.76670399999999,"mosques near Jamaica, Queens"
Al-Quba Mosque,"121-10 Hillside Ave., Richmond Hill, NY 11418, United States",Richmond Hill,NY,11418,ChIJ5_1OOrBgwokRhmhpUnCo2oA,40.701778,-73.82916569999999,"mosques near Jamaica, Queens"
Al-Abidin Mosque,"104-14 127th St #3008, South Richmond Hill, NY 11419, United States",South Richmond Hill,NY,11419,ChIJ9ads8zVnwokRZnsteETwYsc,40.688287,-73.8178267,"mosques near Jamaica, Queens"
"Center for Islamic Studies, Inc.","206-09 Jamaica Ave, Queens Village, NY 11428, United States",Queens Village,NY,11428,ChIJBerPYnthwokRdWlq7YtsA5o,40.7141106,-73.75368139999999,"mosques near Jamaica, Queens"
Woodhaven Jame Mosque,"75-10 Jamaica Ave, Jamaica, NY 11421, United States",Jamaica,NY,11421,ChIJvRkqeN1dwokRke3kOY7pxug,40.69139089999999,-73.86607529999999,"mosques near Jamaica, Queens"
Al Ansar Inc.,"161-34 Foch Blvd, Jamaica, NY 11434, United States",Jamaica,NY,11434,ChIJo-lHd9JmwokR9jX5u69svyE,40.6840123,-73.7834836,"mosques near Jamaica, Queens"
Darul Uloom New York (DUNY) Masjid & Madrasah,"150-15 Hillside Ave., Jamaica, NY 11432, United States",Jamaica,NY,11432,ChIJx4CHE7RhwokR4BZiC6XT7RI,40.7070951,-73.8060189,"mosques near Jamaica, Queens"
Masjid Bilal Queens,"121-03 Sutphin Blvd, Jamaica, NY 11434, United States",Jamaica,NY,11434,ChIJE_UDWABnwokR55uvt2N9ayk,40.6772059,-73.79076069999999,"mosques near Jamaica, Queens"
Islamic Circle of North America (ICNA),"166-26 89th Ave, Jamaica, NY 11432, United States",Jamaica,NY,11432,ChIJ-0gLAyBhwokRTjMvNAoDzIg,40.708152,-73.794282,"mosques near Jamaica, Queens"
Masjid Omar Ben Abdel-Aziz,"88-29 161st St, Jamaica, NY 11432, United States",Jamaica,NY,11432,ChIJAWNkd95gwokRsNqgphqeRPo,40.7074921,-73.8005197,"mosques near Jamaica, Queens"
Markazul Hikmah,"181-14 Hillside Ave., Jamaica, NY 11432, United States",Jamaica,NY,11432,ChIJO2uH275hwokRYM6k8T2tFcQ,40.71299880000001,-73.7810836,"mosques near Jamaica, Queens"
Masjid Tawhid (Darut Tawhid),"124-07 Jamaica Ave, Richmond Hill, NY 11418, United States",Richmond Hill,NY,11418,ChIJFY3F5bBgwokRQyR7NTAz9jY,40.7009716,-73.82617429999999,"mosques near Jamaica, Queens"
Alhera Islamic Institute,"125-05 Jamaica Ave, Richmond Hill, NY 11418, United States",Richmond Hill,NY,11418,ChIJzYdyw7BgwokR2PxuYWzU--s,40.7011134,-73.8254242,"mosques near Jamaica, Queens"
Baitul Ahad Islamic Center INC,"107-58 Sutphin Blvd, Jamaica, NY 11435, United States",Jamaica,NY,11435,ChIJ7Q03z0hhwokRZ295Fu5hmC8,40.6930949,-73.7996612,"mosques near Jamaica, Queens"
Reyazul Jannah Islamic Center Inc.,"107-23 157th St, Jamaica, NY 11433, United States",Jamaica,NY,11433,ChIJcy4UN9ZgwokRsSzblYMqoBI,40.6957677,-73.7960502,"mosques near Jamaica, Queens"
Arafa Islamic Center,"88-49 179th Pl, Jamaica, NY 11432, United States",Jamaica,NY,11432,ChIJv33iE2xhwokRh_ZU9Si1iEw,40.711381,-73.782631,"mosques near Jamaica, Queens"
Al-Khoei Foundation,"89-89 Van Wyck Expy, Jamaica, NY 11435, United States",Jamaica,NY,11435,ChIJ6evrhchgwokRVg7zSrFR2e4,40.7008962,-73.8150139,"mosques near Jamaica, Queens"
Ibrahim Masjid & Communty Center,"95-04 103rd Ave, Jamaica, NY 11417, United States",Jamaica,NY,11417,ChIJz7euWm9dwokRKiJ5QIh3CPQ,40.6823841,-73.8442401,"mosques near Jamaica, Queens"
Masjid Ahlul Qur'aan Wa Sunnah,"135-11 125th St, South Ozone Park, NY 11420, United States",South Ozone Park,NY,11420,ChIJo1f3TxRnwokR5tQ9gaf05fo,40.6689139,-73.8143,"mosques near Jamaica, Queens"
Masjid Sunnat-ul-Jamaat,"112-03 101st Ave, South Richmond Hill, NY 11419, United States",South Richmond Hill,NY,11419,ChIJc6DrklFnwokRMlZtHbF9tH0,40.6884761,-73.8316851,"mosques near Jamaica, Queens"
Ar-Rahman Community Center,"87-43 168th Pl, Jamaica, NY 11432, United States",Jamaica,NY,11432,ChIJWx3JPXVhwokRAKwK5wu5nj4,40.7109722,-73.79390939999999,"mosques near Jamaica, Queens"
AMC,"89-14 150th St, Jamaica, NY 11435, United States",Jamaica,NY,11435,ChIJUQirSwBhwokR8aykDQ54Wco,40.7042193,-73.8056501,"mosques near Jamaica, Queens"
Masjid Ar-Rahman,"98-10 211th St, Queens Village, NY 11429, United States",Queens Village,NY,11429,ChIJISzVdX1hwokRA6s1TNY9wBo,40.7139906,-73.74918790000001,"mosques near Jamaica, Queens"
Masjid Al Abbasi Inc,"110-16 156th St, Jamaica, NY 11433, United States",Jamaica,NY,11433,ChIJ6YnxZiNhwokRpFPNjLnFaV8,40.6906918,-73.7938001,"mosques near Jamaica, Queens"
World Islamic Mission,"144-03 Tuskegee Airmen Way, Jamaica, NY 11435, United States",Jamaica,NY,11435,ChIJUdqCUJBhwokRwvio7qXmijk,40.6910993,-73.8063612,"mosques near Jamaica, Queens"
Masjid Al Jama,"94-17 102nd St, Ozone Park, NY 11416, United States",Ozone Park,NY,11416,ChIJD1twnfhdwokRB39ZdCYCg5A,40.6887947,-73.841934,"mosques near Jamaica, Queens"
Islamic Unity & Cultural Center,"114-11 91st Ave, Richmond Hill, NY 11418, United States",Richmond Hill,NY,11418,ChIJiRLJm7ZhwokRKyze-vFZwTw,40.6950283,-73.8329236,"mosques near Jamaica, Queens"
Baitun Noor Masjid,"88-19 Liberty Ave, Jamaica, NY 11417, United States",Jamaica,NY,11417,ChIJf1t0uvNdwokRlaLWQTnJtXY,40.6802121,-73.8499659,"mosques near Jamaica, Queens"
Al-Markaz Mosque ( ICNA),"166-26 89th Ave, Jamaica, NY 11432, United States",Jamaica,NY,11432,ChIJCVOXOQBhwokRhtjwQrd_BAI,40.7083137,-73.79438669999999,"mosques near Jamaica, Queens"
Masjid Quadria,"84-20 129th St, Jamaica, NY 11415, United States",Jamaica,NY,11415,ChIJn9EFGadhwokRgtP4e-11fK4,40.7063012,-73.8241133,"mosques near Jamaica, Queens"
Al-Muneer Community Center,"195-04 Hillside Ave., Hollis, NY 11423, United States",Hollis,NY,11423,ChIJibDbUnJhwokR1kMzyvhcLoE,40.7169105,-73.7678603,"mosques near Jamaica, Queens"
Hollis Muslim Center,"109-01 205th Pl, St. Albans, NY 11412, United States",St. Albans,NY,11412,ChIJr86LoLlhwokRyYENszRMJws,40.7085035,-73.7525191,"mosques near Jamaica, Queens"
ICNA Al-Markaz Hifz School,"166-26 89th Ave, Jamaica, NY 11432, United States",Jamaica,NY,11432,ChIJAWm0jH5hwokR2ToJ1F_x6Lo,40.708152,-73.794282,"mosques near Jamaica, Queens"
Thanavi Madani Center (TMC),"168-27 84th Ave, Jamaica, NY 11432, United States",Jamaica,NY,11432,ChIJE2Bp8slhwokRn6Wh7pJVJes,40.7162418,-73.7965263,"mosques near Jamaica, Queens"
Al-Saaliheen Mosque,"72-55 Kissena Blvd #2, Flushing, NY 11367, United States",Flushing,NY,11367,ChIJ5YgBJvRgwokRamPsmO6ir-w,40.7276229,-73.8129926,"mosques near Jamaica, Queens"
Ozone Park Islamic Center,"104-23 103rd St, Ozone Park, NY 11417, United States",Ozone Park,NY,11417,ChIJa6ghyNpnwokRO4kQA1PQAmY,40.6811006,-73.8372687,"mosques near Jamaica, Queens"
Islamic Foundation Inc,"88-29 161st St, Jamaica, NY 11432, United States",Jamaica,NY,11432,ChIJ0URhd95gwokR98-AZFvVwD8,40.7074306,-73.80048459999999,"mosques near Jamaica, Queens"
J.F.K. International Islamic Center,"John F. Kennedy International Airport, Terminal 4, Departure Level Suite #461-007, Jamaica, NY 11430, United States",Jamaica,NY,11430,ChIJg7gixVlmwokRl0oyqrGK-tI,40.6438525,-73.7811457,"mosques near Jamaica, Queens"
Hollis Muslim Community Center (HMCC),"200-21 Hollis Ave, St. Albans, NY 11412, United States",St. Albans,NY,11412,ChIJA_C-XnJhwokRR-v1CHC6TyY,40.706415,-73.756878,"mosques near Jamaica, Queens"
"An-Noor Institute, Muslim Youth & Community Center","91-12 175th St 2nd Floor, Jamaica, NY 11432, United States",Jamaica,NY,11432,ChIJMxi3cNRhwokRQsOGylRv_e4,40.7087598,-73.78644630000001,"mosques near Jamaica, Queens"
Ahmadiyya Movement In Islam,"188-15 McLaughlin Ave, Hollis, NY 11423, United States",Hollis,NY,11423,ChIJIWM55gthwokRJ-NxIXNXjhc,40.7219504,-73.7763652,"mosques near Jamaica, Queens"
Masjid Baitul Gaffar,"86-81 102nd St, Richmond Hill, NY 11418, United States",Richmond Hill,NY,11418,ChIJN4Z63TpdwokRBVK7WHX6qDs,40.694727,-73.8450453,"mosques near Jamaica, Queens"
Central Islamic Center of New York,"121-22 103rd Ave, South Richmond Hill, NY 11419, United States",South Richmond Hill,NY,11419,ChIJa4FRz0tnwokR9Yfw9Ywb2ks,40.68856,-73.82202099999999,"mosques near Jamaica, Queens"
Al Misbaah Cultural Center,"195-55 Woodhull Ave, Jamaica, NY 11423, United States",Jamaica,NY,11423,ChIJZ-jiv3thwokR8NXZRlUWysw,40.7127622,-73.76402329999999,"mosques near Jamaica, Queens"
Al-Falah Dawah Center,"179-05 Jamaica Ave, Jamaica, NY 11432, United States",Jamaica,NY,11432,ChIJd4U6UQBhwokRY2V5pAoOkRI,40.7082684,-73.7821604,"mosques near Jamaica, Queens"
Springfield Gardens Muslim Center Inc.,"176-27 134th Ave, Jamaica, NY 11434, United States",Jamaica,NY,11434,ChIJ0SkBvuhnwokRuDZorMCAl7c,40.6761248,-73.7637056,"mosques near Jamaica, Queens"
Jackson Heights Islamic Center,"71-20 Roosevelt Ave, Flushing, NY 11372, United States",Flushing,NY,11372,ChIJbYpfWwFfwokRMduJmdvsX_w,40.7463997,-73.8938814,"mosques near Jackson Heights, Queens"
Islamic Center of Jackson Heights - Masjid Abu Huraira,"78-04 31st Ave, East Elmhurst, NY 11370, United States",East Elmhurst,NY,11370,ChIJnwDFnotfwokRoER0plLuQ9M,40.758698,-73.8895642,"mosques near Jackson Heights, Queens"
Masjid Al Taufiq,"41-02 Forley St, Elmhurst, NY 11373, United States",Elmhurst,NY,11373,ChIJH5taQ65fwokR-6nA4G6DNus,40.7467851,-73.879412,"mosques near Jackson Heights, Queens"
Darul Hidayah,"37-18 73rd St, Jackson Heights, NY 11372, United States",Jackson Heights,NY,11372,ChIJuWhieklfwokRG35PMgMwv2c,40.7483797,-73.8928847,"mosques near Jackson Heights, Queens"
Masjid Dar-ul Furqan,"35-06 72nd St, Jackson Heights, NY 11372, United States",Jackson Heights,NY,11372,ChIJr_VucAZfwokRrHTxaMoOy14,40.75047,-73.89406919999999,"mosques near Jackson Heights, Queens"
"Islamic Center of Queens NY, Inc.","57-16 37th Ave, Woodside, NY 11377, United States",Woodside,NY,11377,ChIJ28NelhtfwokRLCNt01zh3NY,40.7501182,-73.90459,"mosques near Jackson Heights, Queens"
Madani Mosque Inc,"41-51 69th St, Woodside, NY 11377, United States",Woodside,NY,11377,ChIJMzPj5gFfwokR-WqT7Ndx9LQ,40.7430618,-73.89555849999999,"mosques near Jackson Heights, Queens"
An-Noor Masjid,"70-13 37 Avenue,(Basement, Jackson Heights, NY 11372, United States",Jackson Heights,NY,11372,ChIJrdHJ67dfwokRWvOGjHrwBvg,40.7488763,-73.8949542,"mosques near Jackson Heights, Queens"
Baitun Noor Mosque,"25-58 84th St, East Elmhurst, NY 11370, United States",East Elmhurst,NY,11370,ChIJZV7rKFpfwokRb0Q8MypgNkc,40.7615645,-73.8848232,"mosques near Jackson Heights, Queens"
Al-Falah Mosque,"42-12 National St, Corona, NY 11368, United States",Corona,NY,11368,ChIJz4vQbMhfwokRQaKM6vC91vs,40.74721479999999,-73.8638209,"mosques near Jackson Heights, Queens"
East Elmhurst Jame-E-Masjid,"95-01 24th Ave, East Elmhurst, NY 11369, United States",East Elmhurst,NY,11369,ChIJr3N3_JBfwokRSTw-t_oIscw,40.7663755,-73.8746587,"mosques near Jackson Heights, Queens"
Al-Hikmah Mosque,"48-01 31st Ave, Astoria, NY 11103, United States",Astoria,NY,11103,ChIJu78KaBZfwokR8jVdepzUW1k,40.7584342,-73.9103547,"mosques near Jackson Heights, Queens"
Woodside Baitul Jannah Masjid,"62-01 39th Ave, Woodside, NY 11377, United States",Woodside,NY,11377,ChIJ37WByBxfwokRC80HVuFCmvI,40.74702,-73.9014134,"mosques near Jackson Heights, Queens"
Muna Center of Jackson Heights,"35-35 71st St, Jackson Heights, NY 11372, United States",Jackson Heights,NY,11372,ChIJlc9zh-5fwokRsp51Zp-YWzI,40.74966209999999,-73.8945263,"mosques near Jackson Heights, Queens"
Masjid-E-Khazra,"23-38 81st St, East Elmhurst, NY 11370, United States",East Elmhurst,NY,11370,ChIJ55prSQBfwokR8XwpBgemvwI,40.7657082,-73.8883425,"mosques near Jackson Heights, Queens"
Elmhurst Muslim Center INC,"42-12 79th St, Queens, NY 11373, United States",Queens,NY,11373,ChIJbelm_KpfwokRF4k1tcR0eXM,40.7433774,-73.8862948,"mosques near Jackson Heights, Queens"
Al-Madni Masjid,"24-04 89th St, East Elmhurst, NY 11369, United States",East Elmhurst,NY,11369,ChIJS4HZD9NfwokRDfRJ7tSl51w,40.7654368,-73.880337,"mosques near Jackson Heights, Queens"
Elmhurst Islamic Center Inc,"87-07 55th Ave, Elmhurst, NY 11373, United States",Elmhurst,NY,11373,ChIJX5CX_k1ewokRf5yVqVM8wpE,40.7352151,-73.8767775,"mosques near Jackson Heights, Queens"
MAS Queens Center,"46-01 20th Ave, Astoria, NY 11105, United States",Astoria,NY,11105,ChIJZW9jYHpfwokRcydISPkOlh4,40.7738946,-73.89780689999999,"mosques near Jackson Heights, Queens"
Masjid Nur Allah,"97-05 Horace Harding Expy #3, Corona, NY 11368, United States",Corona,NY,11368,ChIJ4RNBGjVewokRe0c_DB2xTZ0,40.7355886,-73.8620394,"mosques near Jackson Heights, Queens"
Jackson heights masjid,"37-18 73rd St, Jackson Heights, NY 11372, United States",Jackson Heights,NY,11372,ChIJjSStDQBfwokR0s3X66bHXL4,40.7483797,-73.8928847,"mosques near Jackson Heights, Queens"
Al-Iman Mosque,"24-30 Steinway St, Long Island City, NY 11103, United States",Long Island City,NY,11103,ChIJcd40bWpfwokRarqRDvYtYAM,40.768471,-73.9115833,"mosques near Jackson Heights, Queens"
JAMIA HANFIA.,"32-13 57th St, Flushing, NY 11377, United States",Flushing,NY,11377,ChIJIYNh8RBfwokRNCZan7Ss6h4,40.7553232,-73.9041075,"mosques near Jackson Heights, Queens"
Baitul Hamd,"31-39 94th St, East Elmhurst, NY 11369, United States",East Elmhurst,NY,11369,ChIJfUTwplZfwokRBjevvtS3FMw,40.7592386,-73.874403,"mosques near Jackson Heights, Queens"
Masjid Nurul Amir Mu’min,"62-17 Northern Blvd, Woodside, NY 11377, United States",Woodside,NY,11377,ChIJW697g5BfwokRgYASaA-E-v8,40.7542477,-73.899667,"mosques near Jackson Heights, Queens"
An-Noor Cultural Center,"74-30 Woodside Ave, Elmhurst, NY 11373, United States",Elmhurst,NY,11373,ChIJrwBCiwBfwokRuUUYF6ali5g,40.7431247,-73.8897549,"mosques near Jackson Heights, Queens"
Ahlul Bayt Mission Masjid : Foundation of Love USA. مجمع اهل البيت,"41-06 55th St, Flushing, NY 11377, United States",Flushing,NY,11377,ChIJ9YsK0x9fwokRR9-qw1Sljx8,40.7450992,-73.9096493,"mosques near Jackson Heights, Queens"
مسجد اسلامي,"70-0، 70-98 37th Ave, Jackson Heights, NY 11372, United States",Jackson Heights,NY,11372,ChIJhR4EtXNfwokRWUgiFcbVXLU,40.7487636,-73.89500389999999,"mosques near Jackson Heights, Queens"
Masjid Al Abrar,"70-50 Broadway, Jackson Heights, NY 11372, United States",Jackson Heights,NY,11372,ChIJa1JaTwBfwokRyIyi1_9rZvc,40.7477709,-73.8943268,"mosques near Jackson Heights, Queens"
Masjid Dar Al-Dawah,"35-13 23rd Ave, Astoria, NY 11105, United States",Astoria,NY,11105,ChIJLXSb31xfwokR3fdyxYOLqOM,40.772912,-73.9105178,"mosques near Jackson Heights, Queens"
Hedaya Masjid,"37-18 73rd St, Flushing, NY 11372, United States",Flushing,NY,11372,ChIJtYbVwwZfwokRDMdA_xYF1L0,40.7483797,-73.8928847,"mosques near Jackson Heights, Queens"
Parkchester Jame Masjid,"1203 Virginia Ave, Bronx, NY 10472, United States",Bronx,NY,10472,ChIJPcdF6MP0wokRNWH2mUgAXlI,40.8307029,-73.8608854,"mosques near Parkchester, Bronx"
PIC (Parkchester Islamic Center),"1375 Virginia Ave, Bronx, NY 10462, United States",Bronx,NY,10462,ChIJX3DouUwPZkARFQHTNpj3Gsc,40.835324,-73.862251,"mosques near Parkchester, Bronx"
Baitul Aman Islamic Center Inc.,"2351 Newbold Ave, Bronx, NY 10462, United States",Bronx,NY,10462,ChIJJUpOdcr0wokRFrzGf1Jr7OY,40.83419079999999,-73.8462861,"mosques near Parkchester, Bronx"
The African Islamic Center,"2044 Benedict Ave, Bronx, NY 10462, United States",Bronx,NY,10462,ChIJ3xayo8f0wokRhEpxniL8VqU,40.8344274,-73.856127,"mosques near Parkchester, Bronx"
Masjid Taqwa Islamic Center,"1510 Parker St, Bronx, NY 10462, United States",Bronx,NY,10462,ChIJ0-Zt2bX0wokRQ6NL3ZbVn8M,40.8376332,-73.8490513,"mosques near Parkchester, Bronx"
The Bronx Islamic Society,"1726 E 172nd St, Bronx, NY 10472, United States",Bronx,NY,10472,ChIJa7PbXOn0wokRYsVSwMbk66M,40.83235579999999,-73.8699068,"mosques near Parkchester, Bronx"
MAS Bronx Muslim Center (Muslim American Society of Upper New York),"702 Rhinelander Ave, Bronx, NY 10462, United States",Bronx,NY,10462,ChIJjcF6GZj0wokRUPgqK4Vs0oU,40.8474373,-73.8665448,"mosques near Parkchester, Bronx"
Bangla Bazar Jame Masjid,"1351 Odell St, Bronx, NY 10462, United States",Bronx,NY,10462,ChIJueIR-Mf0wokRauXjWfTydf4,40.8355107,-73.8542101,"mosques near Parkchester, Bronx"
"Unionport Jame Masjid, Inc.","2126 Watson Ave, Bronx, NY 10472, United States",Bronx,NY,10472,ChIJoeVjcc_0wokRc8siqH5UEGI,40.8293931,-73.85252559999999,"mosques near Parkchester, Bronx"
Baitul Maamur Jame Masjid,"1511 St Peters Ave, Bronx, NY 10461, United States",Bronx,NY,10461,ChIJMcqo-rP0wokRmJlXqAiEu5U,40.8399842,-73.8469568,"mosques near Parkchester, Bronx"
Shahjalal Islamic Center,"1924 McGraw Ave, Bronx, NY 10462, United States",Bronx,NY,10462,ChIJM1Y1DZH1wokRYNqNaqbnM4k,40.8345292,-73.8602385,"mosques near Parkchester, Bronx"
Masjid Al Aqsa,"1501 St Peters Ave, Bronx, NY 10461, United States",Bronx,NY,10461,ChIJ3XhF6Hj1wokRbBYok2ZPhu4,40.8398299,-73.84672789999999,"mosques near Parkchester, Bronx"
Madinah Masjid,"834 Brady Ave, Bronx, NY 10462, United States",Bronx,NY,10462,ChIJBSlgnaH0wokRfJRe6sCU7UU,40.8521939,-73.8624877,"mosques near Parkchester, Bronx"
Baitul Abrar Masjid,"1860 Archer St, Bronx, NY 10462, United States",Bronx,NY,10462,ChIJ_z4omiX1wokR6aaJyiCOD7I,40.8377193,-73.86424319999999,"mosques near Parkchester, Bronx"
Castlehill ideal Islamic center,"2166 Turnbull Ave, Bronx, NY 10473, United States",Bronx,NY,10473,ChIJHf_GD8X1wokRxKermwTiwko,40.8238345,-73.849463,"mosques near Parkchester, Bronx"
Darus Sunnah New York ( Madrasha+Masjid),"1861 Wallace Ave, Bronx, NY 10462, United States",Bronx,NY,10462,ChIJNW1VfQD1wokRDdMalsjR9Ok,40.8474738,-73.8643153,"mosques near Parkchester, Bronx"
Castle Hill Jame Masjid,"430 Torry Ave, Bronx, NY 10473, United States",Bronx,NY,10473,ChIJY7eEOOn1wokRIn-sg5yk1RM,40.8155022,-73.8491311,"mosques near Parkchester, Bronx"
Adam Masjid - مسجد آدم,"1722 Adams St, Bronx, NY 10460, United States",Bronx,NY,10460,ChIJt2mZXgD1wokRhXkUxtRrntg,40.8412171,-73.8710931,"mosques near Parkchester, Bronx"
"Bronx Islamic Cultural Center Masjid Bilal, Inc.","1227 St Lawrence Ave, Bronx, NY 10472, United States",Bronx,NY,10472,ChIJu73vzbH1wokRTfnvAmx2V6s,40.8306322,-73.8672902,"mosques near Parkchester, Bronx"
Gulzar e Madinah Masjid,"2162 Muliner Ave, Bronx, NY 10462, United States",Bronx,NY,10462,ChIJNf8ZkKD0wokRKy_qUruii4c,40.8555638,-73.8617107,"mosques near Parkchester, Bronx"
Masjid al-Ummah: Community Mosque,"793 Elsmere Pl, Bronx, NY 10460, United States",Bronx,NY,10460,ChIJZ99JPVX1wokRytLxJcuqmrQ,40.8433477,-73.8884044,"mosques near Parkchester, Bronx"
Islamic Center,"2481 Belmont Ave, Bronx, NY 10458, United States",Bronx,NY,10458,ChIJN8T_CoH0wokRSMToZ7bpcz8,40.8568773,-73.88462,"mosques near Parkchester, Bronx"
